ONEWEB-0594             
1 54660U 22166U   25344.26540925  .00000071  00000+0  14023-3 0  9999
2 54660  87.9219 281.6793 0001858  78.0012 282.1330 13.21824448146608
ONEWEB-0595             
1 54661U 22166V   25344.24236401  .00000135  00000+0  29488-3 0  9991
2 54661  87.9215 281.6571 0001735  72.3488 287.7835 13.21824568146577
ONEWEB-0596             
1 54662U 22166W   25344.29173349  .00000076  00000+0  15349-3 0  9993
2 54662  87.9216 281.6643 0001725  76.6338 283.4988 13.21824174146585
ONEWEB-0597             
1 54663U 22166X   25344.27364207  .00000103  00000+0  21746-3 0  9996
2 54663  87.9218 281.6724 0001784  81.8432 278.2905 13.21825070146583
ONEWEB-0600             
1 54664U 22166Y   25344.25553508  .00000116  00000+0  24990-3 0  9997
2 54664  87.9218 281.6669 0001932  80.2339 279.9013 13.21825040146558
ONEWEB-0601             
1 54665U 22166Z   25344.24730772  .00000150  00000+0  33231-3 0  9993
2 54665  87.9218 281.6865 0001791  87.2756 272.8583 13.21825300146744
ONEWEB-0602             
1 54666U 22166AA  25344.28763116  .00000091  00000+0  18985-3 0  9999
2 54666  87.9218 281.6825 0002157  80.3217 279.8161 13.21827162146594
ONEWEB-0603             
1 54667U 22166AB  25344.29338083  .00000067  00000+0  13018-3 0  9997
2 54667  87.9226 281.6203 0001851  81.8906 278.2438 13.21828419146524
ONEWEB-0604             
1 54668U 22166AC  25344.28185483  .00000063  00000+0  12169-3 0  9993
2 54668  87.9218 281.6425 0001832  75.2555 284.8782 13.21829076146488
ONEWEB-0605             
1 54669U 22166AD  25344.27528648  .00000043  00000+0  71725-4 0  9999
2 54669  87.9215 281.6718 0001501  98.1785 261.9519 13.21824851146551
ONEWEB-0606             
1 54670U 22166AE  25344.29668143  .00000026  00000+0  30326-4 0  9991
2 54670  87.9217 281.6789 0001729  72.1773 287.9550 13.21825462146613
ONEWEB-0607             
1 54671U 22166AF  25344.26376670  .00000123  00000+0  26739-3 0  9990
2 54671  87.9217 281.6490 0001873  82.2797 277.8549 13.21825403146588
ONEWEB-0608             
1 54672U 22166AG  25344.27033959  .00000129  00000+0  28203-3 0  9996
2 54672  87.9226 281.6350 0001747  96.7274 263.4058 13.21824565146599
ONEWEB-0610             
1 54673U 22166AH  25344.25059237  .00000200  00000+0  45304-3 0  9993
2 54673  87.9217 281.6721 0001829  97.0961 263.0381 13.21824467146495
ONEWEB-0611             
1 54674U 22166AJ  25344.24402138  .00000133  00000+0  28961-3 0  9990
2 54674  87.9218 281.6693 0001850  71.3123 288.8211 13.21827470146487
ONEWEB-0612             
1 54675U 22166AK  25344.25717912  .00000142  00000+0  31240-3 0  9995
2 54675  87.9217 281.6458 0001822  82.9604 277.1738 13.21824945146475
