[{"OBJECT_NAME":"ONEWEB-0594","OBJECT_ID":"2022-166U","EPOCH":"2025-12-10T06:22:11.359200","MEAN_MOTION":13.21824448,"ECCENTRICITY":0.00018587,"INCLINATION":87.9219,"RA_OF_ASC_NODE":281.6793,"ARG_OF_PERICENTER":78.0012,"MEAN_ANOMALY":282.133,"EPHEMERIS_TYPE":0,"CLASSIFICATION_TYPE":"U","NORAD_CAT_ID":54660,"ELEMENT_SET_NO":999,"REV_AT_EPOCH":14660,"BSTAR":0.00014023016,"MEAN_MOTION_DOT":7.1e-7,"MEAN_MOTION_DDOT":0},{"OBJECT_NAME":"ONEWEB-0595","OBJECT_ID":"2022-166V","EPOCH":"2025-12-10T05:49:00.250464","MEAN_MOTION":13.21824568,"ECCENTRICITY":0.00017359,"INCLINATION":87.9215,"RA_OF_ASC_NODE":281.6571,"ARG_OF_PERICENTER":72.3488,"MEAN_ANOMALY":287.7835,"EPHEMERIS_TYPE":0,"CLASSIFICATION_TYPE":"U","NORAD_CAT_ID":54661,"ELEMENT_SET_NO":999,"REV_AT_EPOCH":14657,"BSTAR":0.000294879,"MEAN_MOTION_DOT":1.35e-6,"MEAN_MOTION_DDOT":0},{"OBJECT_NAME":"ONEWEB-0596","OBJECT_ID":"2022-166W","EPOCH":"2025-12-10T07:00:05.773536","MEAN_MOTION":13.21824174,"ECCENTRICITY":0.00017251,"INCLINATION":87.9216,"RA_OF_ASC_NODE":281.6643,"ARG_OF_PERICENTER":76.6338,"MEAN_ANOMALY":283.4988,"EPHEMERIS_TYPE":0,"CLASSIFICATION_TYPE":"U","NORAD_CAT_ID":54662,"ELEMENT_SET_NO":999,"REV_AT_EPOCH":14658,"BSTAR":0.00015349052,"MEAN_MOTION_DOT":7.6e-7,"MEAN_MOTION_DDOT":0},{"OBJECT_NAME":"ONEWEB-0597","OBJECT_ID":"2022-166X","EPOCH":"2025-12-10T06:34:02.674848","MEAN_MOTION":13.2182507,"ECCENTRICITY":0.00017844,"INCLINATION":87.9218,"RA_OF_ASC_NODE":281.6724,"ARG_OF_PERICENTER":81.8432,"MEAN_ANOMALY":278.2905,"EPHEMERIS_TYPE":0,"CLASSIFICATION_TYPE":"U","NORAD_CAT_ID":54663,"ELEMENT_SET_NO":999,"REV_AT_EPOCH":14658,"BSTAR":0.00021745695,"MEAN_MOTION_DOT":1.03e-6,"MEAN_MOTION_DDOT":0},{"OBJECT_NAME":"ONEWEB-0600","OBJECT_ID":"2022-166Y","EPOCH":"2025-12-10T06:07:58.230912","MEAN_MOTION":13.2182504,"ECCENTRICITY":0.00019327,"INCLINATION":87.9218,"RA_OF_ASC_NODE":281.6669,"ARG_OF_PERICENTER":80.2339,"MEAN_ANOMALY":279.9013,"EPHEMERIS_TYPE":0,"CLASSIFICATION_TYPE":"U","NORAD_CAT_ID":54664,"ELEMENT_SET_NO":999,"REV_AT_EPOCH":14655,"BSTAR":0.00024989814,"MEAN_MOTION_DOT":1.16e-6,"MEAN_MOTION_DDOT":0},{"OBJECT_NAME":"ONEWEB-0601","OBJECT_ID":"2022-166Z","EPOCH":"2025-12-10T05:56:07.387008","MEAN_MOTION":13.218253,"ECCENTRICITY":0.00017918,"INCLINATION":87.9218,"RA_OF_ASC_NODE":281.6865,"ARG_OF_PERICENTER":87.2756,"MEAN_ANOMALY":272.8583,"EPHEMERIS_TYPE":0,"CLASSIFICATION_TYPE":"U","NORAD_CAT_ID":54665,"ELEMENT_SET_NO":999,"REV_AT_EPOCH":14674,"BSTAR":0.00033230505,"MEAN_MOTION_DOT":1.5e-6,"MEAN_MOTION_DDOT":0},{"OBJECT_NAME":"ONEWEB-0602","OBJECT_ID":"2022-166AA","EPOCH":"2025-12-10T06:54:11.332224","MEAN_MOTION":13.21827162,"ECCENTRICITY":0.00021572,"INCLINATION":87.9218,"RA_OF_ASC_NODE":281.6825,"ARG_OF_PERICENTER":80.3217,"MEAN_ANOMALY":279.8161,"EPHEMERIS_TYPE":0,"CLASSIFICATION_TYPE":"U","NORAD_CAT_ID":54666,"ELEMENT_SET_NO":999,"REV_AT_EPOCH":14659,"BSTAR":0.00018985064,"MEAN_MOTION_DOT":9.1e-7,"MEAN_MOTION_DDOT":0},{"OBJECT_NAME":"ONEWEB-0603","OBJECT_ID":"2022-166AB","EPOCH":"2025-12-10T07:02:28.103712","MEAN_MOTION":13.21828419,"ECCENTRICITY":0.00018519,"INCLINATION":87.9226,"RA_OF_ASC_NODE":281.6203,"ARG_OF_PERICENTER":81.8906,"MEAN_ANOMALY":278.2438,"EPHEMERIS_TYPE":0,"CLASSIFICATION_TYPE":"U","NORAD_CAT_ID":54667,"ELEMENT_SET_NO":999,"REV_AT_EPOCH":14652,"BSTAR":0.00013018354,"MEAN_MOTION_DOT":6.7e-7,"MEAN_MOTION_DDOT":0},{"OBJECT_NAME":"ONEWEB-0604","OBJECT_ID":"2022-166AC","EPOCH":"2025-12-10T06:45:52.257312","MEAN_MOTION":13.21829076,"ECCENTRICITY":0.00018329,"INCLINATION":87.9218,"RA_OF_ASC_NODE":281.6425,"ARG_OF_PERICENTER":75.2555,"MEAN_ANOMALY":284.8782,"EPHEMERIS_TYPE":0,"CLASSIFICATION_TYPE":"U","NORAD_CAT_ID":54668,"ELEMENT_SET_NO":999,"REV_AT_EPOCH":14648,"BSTAR":0.00012168524,"MEAN_MOTION_DOT":6.3e-7,"MEAN_MOTION_DDOT":0},{"OBJECT_NAME":"ONEWEB-0605","OBJECT_ID":"2022-166AD","EPOCH":"2025-12-10T06:36:24.751872","MEAN_MOTION":13.21824851,"ECCENTRICITY":0.00015011,"INCLINATION":87.9215,"RA_OF_ASC_NODE":281.6718,"ARG_OF_PERICENTER":98.1785,"MEAN_ANOMALY":261.9519,"EPHEMERIS_TYPE":0,"CLASSIFICATION_TYPE":"U","NORAD_CAT_ID":54669,"ELEMENT_SET_NO":999,"REV_AT_EPOCH":14655,"BSTAR":7.172491e-5,"MEAN_MOTION_DOT":4.3e-7,"MEAN_MOTION_DDOT":0},{"OBJECT_NAME":"ONEWEB-0606","OBJECT_ID":"2022-166AE","EPOCH":"2025-12-10T07:07:13.275552","MEAN_MOTION":13.21825462,"ECCENTRICITY":0.00017298,"INCLINATION":87.9217,"RA_OF_ASC_NODE":281.6789,"ARG_OF_PERICENTER":72.1773,"MEAN_ANOMALY":287.955,"EPHEMERIS_TYPE":0,"CLASSIFICATION_TYPE":"U","NORAD_CAT_ID":54670,"ELEMENT_SET_NO":999,"REV_AT_EPOCH":14661,"BSTAR":3.0326085e-5,"MEAN_MOTION_DOT":2.6e-7,"MEAN_MOTION_DDOT":0},{"OBJECT_NAME":"ONEWEB-0607","OBJECT_ID":"2022-166AF","EPOCH":"2025-12-10T06:19:49.442880","MEAN_MOTION":13.21825403,"ECCENTRICITY":0.00018736,"INCLINATION":87.9217,"RA_OF_ASC_NODE":281.649,"ARG_OF_PERICENTER":82.2797,"MEAN_ANOMALY":277.8549,"EPHEMERIS_TYPE":0,"CLASSIFICATION_TYPE":"U","NORAD_CAT_ID":54671,"ELEMENT_SET_NO":999,"REV_AT_EPOCH":14658,"BSTAR":0.00026739184,"MEAN_MOTION_DOT":1.23e-6,"MEAN_MOTION_DDOT":0},{"OBJECT_NAME":"ONEWEB-0608","OBJECT_ID":"2022-166AG","EPOCH":"2025-12-10T06:29:17.340576","MEAN_MOTION":13.21824565,"ECCENTRICITY":0.0001747,"INCLINATION":87.9226,"RA_OF_ASC_NODE":281.635,"ARG_OF_PERICENTER":96.7274,"MEAN_ANOMALY":263.4058,"EPHEMERIS_TYPE":0,"CLASSIFICATION_TYPE":"U","NORAD_CAT_ID":54672,"ELEMENT_SET_NO":999,"REV_AT_EPOCH":14659,"BSTAR":0.00028202832,"MEAN_MOTION_DOT":1.29e-6,"MEAN_MOTION_DDOT":0},{"OBJECT_NAME":"ONEWEB-0610","OBJECT_ID":"2022-166AH","EPOCH":"2025-12-10T06:00:51.180768","MEAN_MOTION":13.21824467,"ECCENTRICITY":0.00018295,"INCLINATION":87.9217,"RA_OF_ASC_NODE":281.6721,"ARG_OF_PERICENTER":97.0961,"MEAN_ANOMALY":263.0381,"EPHEMERIS_TYPE":0,"CLASSIFICATION_TYPE":"U","NORAD_CAT_ID":54673,"ELEMENT_SET_NO":999,"REV_AT_EPOCH":14649,"BSTAR":0.00045304172,"MEAN_MOTION_DOT":2.0e-6,"MEAN_MOTION_DDOT":0},{"OBJECT_NAME":"ONEWEB-0611","OBJECT_ID":"2022-166AJ","EPOCH":"2025-12-10T05:51:23.447232","MEAN_MOTION":13.2182747,"ECCENTRICITY":0.00018503,"INCLINATION":87.9218,"RA_OF_ASC_NODE":281.6693,"ARG_OF_PERICENTER":71.3123,"MEAN_ANOMALY":288.8211,"EPHEMERIS_TYPE":0,"CLASSIFICATION_TYPE":"U","NORAD_CAT_ID":54674,"ELEMENT_SET_NO":999,"REV_AT_EPOCH":14648,"BSTAR":0.00028960675,"MEAN_MOTION_DOT":1.33e-6,"MEAN_MOTION_DDOT":0},{"OBJECT_NAME":"ONEWEB-0612","OBJECT_ID":"2022-166AK","EPOCH":"2025-12-10T06:10:20.275968","MEAN_MOTION":13.21824945,"ECCENTRICITY":0.00018225,"INCLINATION":87.9217,"RA_OF_ASC_NODE":281.6458,"ARG_OF_PERICENTER":82.9604,"MEAN_ANOMALY":277.1738,"EPHEMERIS_TYPE":0,"CLASSIFICATION_TYPE":"U","NORAD_CAT_ID":54675,"ELEMENT_SET_NO":999,"REV_AT_EPOCH":14647,"BSTAR":0.00031239636,"MEAN_MOTION_DOT":1.42e-6,"MEAN_MOTION_DDOT":0}]
